CCSDS_OMM_VERS = 2.0
CREATION_DATE  = 
ORIGINATOR     = 

OBJECT_NAME    = CZ-2C R/B
OBJECT_ID      = 2022-132E
CENTER_NAME    = EARTH
REF_FRAME      = TEME
TIME_SYSTEM    = UTC
MEAN_ELEMENT_THEORY = SGP/SGP4

EPOCH          = 2025-12-24T23:03:10.593792
MEAN_MOTION    = 15.55557194
ECCENTRICITY   = .0021159
INCLINATION    = 97.2948
RA_OF_ASC_NODE = 355.3986
ARG_OF_PERICENTER = 15.3934
MEAN_ANOMALY   = 344.7959

EPHEMERIS_TYPE = 0
CLASSIFICATION_TYPE = U
NORAD_CAT_ID   = 54039
ELEMENT_SET_NO = 999
REV_AT_EPOCH   = 17873
BSTAR          = .52104E-3
MEAN_MOTION_DOT = .36007E-3
MEAN_MOTION_DDOT = 0

CCSDS_OMM_VERS = 2.0
CREATION_DATE  = 
ORIGINATOR     = 

OBJECT_NAME    = GSLV R/B
OBJECT_ID      = 2022-138AN
CENTER_NAME    = EARTH
REF_FRAME      = TEME
TIME_SYSTEM    = UTC
MEAN_ELEMENT_THEORY = SGP/SGP4

EPOCH          = 2025-12-25T00:40:58.094688
MEAN_MOTION    = 14.96190939
ECCENTRICITY   = .002404
INCLINATION    = 87.3822
RA_OF_ASC_NODE = 191.3579
ARG_OF_PERICENTER = 65.3598
MEAN_ANOMALY   = 295.0133

EPHEMERIS_TYPE = 0
CLASSIFICATION_TYPE = U
NORAD_CAT_ID   = 54149
ELEMENT_SET_NO = 999
REV_AT_EPOCH   = 17276
BSTAR          = .25845E-3
MEAN_MOTION_DOT = .2956E-4
MEAN_MOTION_DDOT = 0

CCSDS_OMM_VERS = 2.0
CREATION_DATE  = 
ORIGINATOR     = 

OBJECT_NAME    = XRISM
OBJECT_ID      = 2023-137A
CENTER_NAME    = EARTH
REF_FRAME      = TEME
TIME_SYSTEM    = UTC
MEAN_ELEMENT_THEORY = SGP/SGP4

EPOCH          = 2025-12-25T03:01:37.160256
MEAN_MOTION    = 15.10461770
ECCENTRICITY   = .0007626
INCLINATION    = 31.0029
RA_OF_ASC_NODE = 45.5663
ARG_OF_PERICENTER = 9.8864
MEAN_ANOMALY   = 350.1924

EPHEMERIS_TYPE = 0
CLASSIFICATION_TYPE = U
NORAD_CAT_ID   = 57800
ELEMENT_SET_NO = 999
REV_AT_EPOCH   = 12650
BSTAR          = .38005E-3
MEAN_MOTION_DOT = .6508E-4
MEAN_MOTION_DDOT = 0

CCSDS_OMM_VERS = 2.0
CREATION_DATE  = 
ORIGINATOR     = 

OBJECT_NAME    = ACS3
OBJECT_ID      = 2024-077B
CENTER_NAME    = EARTH
REF_FRAME      = TEME
TIME_SYSTEM    = UTC
MEAN_ELEMENT_THEORY = SGP/SGP4

EPOCH          = 2025-12-24T21:13:00.452064
MEAN_MOTION    = 13.86037290
ECCENTRICITY   = .0074623
INCLINATION    = 97.2601
RA_OF_ASC_NODE = 311.7768
ARG_OF_PERICENTER = 308.3116
MEAN_ANOMALY   = 51.1351

EPHEMERIS_TYPE = 0
CLASSIFICATION_TYPE = U
NORAD_CAT_ID   = 59588
ELEMENT_SET_NO = 999
REV_AT_EPOCH   = 8382
BSTAR          = .22149E-1
MEAN_MOTION_DOT = .2611E-3
MEAN_MOTION_DDOT = 0

CCSDS_OMM_VERS = 2.0
CREATION_DATE  = 
ORIGINATOR     = 

OBJECT_NAME    = SZ-21 MODULE
OBJECT_ID      = 2025-246C
CENTER_NAME    = EARTH
REF_FRAME      = TEME
TIME_SYSTEM    = UTC
MEAN_ELEMENT_THEORY = SGP/SGP4

EPOCH          = 2025-12-24T13:16:51.562848
MEAN_MOTION    = 15.63097156
ECCENTRICITY   = .00047243
INCLINATION    = 41.4769
RA_OF_ASC_NODE = 303.9494
ARG_OF_PERICENTER = 323.7646
MEAN_ANOMALY   = 36.2873

EPHEMERIS_TYPE = 0
CLASSIFICATION_TYPE = U
NORAD_CAT_ID   = 66515
ELEMENT_SET_NO = 999
REV_AT_EPOCH   = 629
BSTAR          = .31177301E-3
MEAN_MOTION_DOT = .2901E-3
MEAN_MOTION_DDOT = 0

