CZ-2C R/B               
1 54039U 22132E   25358.96053928  .00036007  00000+0  52104-3 0  9996
2 54039  97.2948 355.3986 0021159  15.3934 344.7959 15.55557194178738
GSLV R/B                
1 54149U 22138AN  25359.02845017  .00002956  00000+0  25845-3 0  9998
2 54149  87.3822 191.3579 0024040  65.3598 295.0133 14.96190939172763
XRISM                   
1 57800U 23137A   25359.12612454  .00006508  00000+0  38005-3 0  9992
2 57800  31.0029  45.5663 0007626   9.8864 350.1924 15.10461770126502
ACS3                    
1 59588U 24077B   25358.88403301  .00026110  00000+0  22149-1 0  9993
2 59588  97.2601 311.7768 0074623 308.3116  51.1351 13.86037290 83825
SZ-21 MODULE            
1 66515U 25246C   25358.55337457  .00029010  00000+0  31177-3 0  9997
2 66515  41.4769 303.9494 0004724 323.7646  36.2873 15.63097156  6295
